[{"OBJECT_NAME":"STARLINK-5067","OBJECT_ID":"2023-021AB","EPOCH":"2026-03-09T17:51:18.658080","MEAN_MOTION":14.98330333,"ECCENTRICITY":0.00035802,"INCLINATION":70.0009,"RA_OF_ASC_NODE":184.1529,"ARG_OF_PERICENTER":271.6002,"MEAN_ANOMALY":88.4747,"EPHEMERIS_TYPE":0,"CLASSIFICATION_TYPE":"U","NORAD_CAT_ID":55653,"ELEMENT_SET_NO":999,"REV_AT_EPOCH":16880,"BSTAR":-7.3128139e-5,"MEAN_MOTION_DOT":-9.66e-6,"MEAN_MOTION_DDOT":0},{"OBJECT_NAME":"COSMOS 2251 DEB","OBJECT_ID":"1993-036BPT","EPOCH":"2026-03-03T18:02:37.907232","MEAN_MOTION":15.02748901,"ECCENTRICITY":0.00784494,"INCLINATION":73.9982,"RA_OF_ASC_NODE":105.7002,"ARG_OF_PERICENTER":203.8682,"MEAN_ANOMALY":155.8863,"EPHEMERIS_TYPE":0,"CLASSIFICATION_TYPE":"U","NORAD_CAT_ID":37968,"ELEMENT_SET_NO":999,"REV_AT_EPOCH":61435,"BSTAR":0.00086959674,"MEAN_MOTION_DOT":0.0001241,"MEAN_MOTION_DDOT":0}]
